NORAD_CAT_ID,OBJECT_NAME,OBJECT_TYPE,EPOCH,MEAN_MOTION,ECCENTRICITY,INCLINATION,RA_OF_ASC_NODE,ARG_OF_PERICENTER,MEAN_ANOMALY,BSTAR,MEAN_MOTION_DOT,MEAN_MOTION_DDOT,TLE_LINE0,TLE_LINE1,TLE_LINE2,SEMIMAJOR_AXIS,PERIOD,APOGEE,PERIGEE,DECAYED
53611.0,STARLINK-4650,PAYLOAD,2023-12-22 01:42:44,15.1176886,0.0005698,53.2167,263.9808,128.0166,232.1343,0.0026728,0.00046134,0.0,0 STARLINK-4650,1 53611U 22104Z   23356.07135331  .00046134  00000-0  26728-2 0  9992,2 53611  53.2167 263.9808 0005698 128.0166 232.1343 15.11768860 73685,6908.942,95.253,534.744,526.871,0.0
53611.0,STARLINK-4650,PAYLOAD,2023-12-22 22:20:19,15.11850624,0.0005674,53.2175,260.1034,129.7084,230.441,0.0026459,0.00045768,0.0,0 STARLINK-4650,1 53611U 22104Z   23356.93077832  .00045768  00000-0  26459-2 0  9991,2 53611  53.2175 260.1034 0005674 129.7084 230.4410 15.11850624 73816,6908.693,95.248,534.478,526.638,0.0
53611.0,STARLINK-4650,PAYLOAD,2023-12-23 01:30:42,15.11862814,0.0005658,53.2175,259.5071,129.8936,230.2556,0.0026705,0.00046215,0.0,0 STARLINK-4650,1 53611U 22104Z   23357.06299370  .00046215  00000-0  26705-2 0  9991,2 53611  53.2175 259.5071 0005658 129.8936 230.2556 15.11862814 73147,6908.656,95.247,534.43,526.612,0.0
53611.0,STARLINK-4650,PAYLOAD,2023-12-23 22:08:12,15.11936252,0.0005655,53.2172,255.632,132.4321,227.7151,0.0026404,0.00045782,0.0,0 STARLINK-4650,1 53611U 22104Z   23357.92236990  .00045782  00000-0  26404-2 0  9999,2 53611  53.2172 255.6320 0005655 132.4321 227.7151 15.11936252 73963,6908.433,95.242,534.204,526.391,0.0
53611.0,STARLINK-4650,PAYLOAD,2023-12-24 02:53:46,15.11953103,0.0005648,53.2166,254.739,133.1497,226.997,0.0026777,0.00046459,0.0,0 STARLINK-4650,1 53611U 22104Z   23358.12068170  .00046459  00000-0  26777-2 0  9990,2 53611  53.2166 254.7390 0005648 133.1497 226.9970 15.11953103 73309,6908.381,95.241,534.148,526.344,0.0
53611.0,STARLINK-4650,PAYLOAD,2023-12-24 21:56:01,15.12015689,0.0005733,53.2167,251.1606,137.2207,222.9233,0.0023911,0.00041499,0.0,0 STARLINK-4650,1 53611U 22104Z   23358.91390654  .00041499  00000-0  23911-2 0  9998,2 53611  53.2167 251.1606 0005733 137.2207 222.9233 15.12015689 74117,6908.191,95.237,534.016,526.095,0.0
53611.0,STARLINK-4650,PAYLOAD,2023-12-24 23:31:12,15.1202191,0.0005735,53.2166,250.8625,137.3612,222.7828,0.0024399,0.00042364,0.0,0 STARLINK-4650,1 53611U 22104Z   23358.98000705  .00042364  00000-0  24399-2 0  9993,2 53611  53.2166 250.8625 0005735 137.3612 222.7828 15.12021910 73432,6908.172,95.237,533.998,526.075,0.0
53611.0,STARLINK-4650,PAYLOAD,2023-12-25 20:08:35,15.1206108,0.0005695,53.2164,246.9869,139.2011,220.941,0.0016479,0.00028491,0.0,0 STARLINK-4650,1 53611U 22104Z   23359.83930426  .00028491  00000-0  16479-2 0  9995,2 53611  53.2164 246.9869 0005695 139.2011 220.9410 15.12061080 73568,6908.052,95.234,533.851,525.983,0.0
53611.0,STARLINK-4650,PAYLOAD,2023-12-25 21:43:46,15.12029419,0.0005989,53.2166,246.6878,142.6532,217.4879,0.0010277,0.00017614,0.0,0 STARLINK-4650,1 53611U 22104Z   23359.90540194  .00017614  00000-0  10277-2 0  9997,2 53611  53.2166 246.6878 0005989 142.6532 217.4879 15.12029419 74267,6908.149,95.236,534.151,525.876,0.0
53611.0,STARLINK-4650,PAYLOAD,2023-12-26 02:29:20,15.12019719,0.0005565,53.2164,245.794,138.6516,221.49,0.002013,0.0003486,0.0,0 STARLINK-4650,1 53611U 22104Z   23360.10370825  .00034860  00000-0  20130-2 0  9994,2 53611  53.2164 245.7940 0005565 138.6516 221.4900 15.12019719 73601,6908.178,95.237,533.888,526.199,0.0
53611.0,STARLINK-4650,PAYLOAD,2023-12-26 19:56:22,15.12019806,0.0006506,53.2169,242.51,144.0714,216.0718,0.0006949,0.00011801,0.0,0 STARLINK-4650,1 53611U 22104Z   23360.83081785  .00011801  00000-0  69490-3 0  9991,2 53611  53.2169 242.5100 0006506 144.0714 216.0718 15.12019806 73712,6908.178,95.237,534.537,525.549,0.0
53611.0,STARLINK-4650,PAYLOAD,2023-12-26 21:31:33,15.12017847,0.0006251,53.2168,242.2124,143.8039,216.3379,0.00051959,8.743e-05,0.0,0 STARLINK-4650,1 53611U 22104Z   23360.89691892  .00008743  00000-0  51959-3 0  9995,2 53611  53.2168 242.2124 0006251 143.8039 216.3379 15.12017847 74415,6908.184,95.237,534.367,525.731,0.0
53611.0,STARLINK-4650,PAYLOAD,2023-12-27 02:17:07,15.12010365,0.0005921,53.216,241.3221,143.2301,216.9099,0.00014556,2.231e-05,0.0,0 STARLINK-4650,1 53611U 22104Z   23361.09522377  .00002231  00000-0  14556-3 0  9997,2 53611  53.2160 241.3221 0005921 143.2301 216.9099 15.12010365 73753,6908.207,95.237,534.162,525.981,0.0
53611.0,STARLINK-4650,PAYLOAD,2023-12-27 13:23:25,15.12006574,0.0005903,53.2164,239.2358,144.1438,215.9952,6.4244e-05,8.17e-06,0.0,0 STARLINK-4650,1 53611U 22104Z   23361.55793399  .00000817  00000-0  64244-4 0  9990,2 53611  53.2164 239.2358 0005903 144.1438 215.9952 15.12006574 74514,6908.218,95.238,534.161,526.005,0.0
53611.0,STARLINK-4650,PAYLOAD,2023-12-27 21:19:20,15.12020023,0.0006199,53.2162,237.7412,146.1342,214.0049,0.0003119,5.126e-05,0.0,0 STARLINK-4650,1 53611U 22104Z   23361.88843327  .00005126  00000-0  31190-3 0  9994,2 53611  53.2162 237.7412 0006199 146.1342 214.0049 15.12020023 74567,6908.177,95.237,534.325,525.76,0.0
53611.0,STARLINK-4650,PAYLOAD,2023-12-28 02:04:53,15.12026493,0.0006266,53.2164,236.8464,146.4488,213.6904,0.00053274,8.975e-05,0.0,0 STARLINK-4650,1 53611U 22104Z   23362.08673452  .00008975  00000-0  53274-3 0  9999,2 53611  53.2164 236.8464 0006266 146.4488 213.6904 15.12026493 73904,6908.158,95.236,534.351,525.694,0.0
53611.0,STARLINK-4650,PAYLOAD,2023-12-28 21:07:06,15.1203762,0.0006279,53.2161,233.2682,149.6129,210.523,0.00046481,7.793e-05,0.0,0 STARLINK-4650,1 53611U 22104Z   23362.87993418  .00007793  00000-0  46481-3 0  9992,2 53611  53.2161 233.2682 0006279 149.6129 210.5230 15.12037620 74717,6908.124,95.236,534.326,525.651,0.0
53611.0,STARLINK-4650,PAYLOAD,2023-12-29 01:52:39,15.12027021,0.0005919,53.2154,232.3753,149.2925,210.8416,0.00016764,2.616e-05,0.0,0 STARLINK-4650,1 53611U 22104Z   23363.07823760  .00002616  00000-0  16764-3 0  9997,2 53611  53.2154 232.3753 0005919 149.2925 210.8416 15.12027021 74058,6908.156,95.236,534.11,525.932,0.0
53611.0,STARLINK-4650,PAYLOAD,2023-12-29 20:54:52,15.12026029,0.000579,53.2155,228.7967,150.1958,209.9366,4.5694e-05,4.95e-06,0.0,0 STARLINK-4650,1 53611U 22104Z   23363.87144202  .00000495  00000-0  45694-4 0  9990,2 53611  53.2155 228.7967 0005790 150.1958 209.9366 15.12026029 74868,6908.159,95.236,534.024,526.024,0.0
53611.0,STARLINK-4650,PAYLOAD,2023-12-30 01:40:25,15.12027404,0.0005851,53.215,227.9024,151.9043,208.2267,3.1071e-05,2.41e-06,0.0,0 STARLINK-4650,1 53611U 22104Z   23364.06974156  .00000241  00000-0  31071-4 0  9994,2 53611  53.2150 227.9024 0005851 151.9043 208.2267 15.12027404 74893,6908.155,95.236,534.062,525.978,0.0
53611.0,STARLINK-4650,PAYLOAD,2023-12-30 19:07:28,15.12017187,0.0005658,53.2153,224.6214,152.1003,208.0295,3.1365e-05,2.46e-06,0.0,0 STARLINK-4650,1 53611U 22104Z   23364.79685254  .00000246  00000-0  31365-4 0  9993,2 53611  53.2153 224.6214 0005658 152.1003 208.0295 15.12017187 74318,6908.186,95.237,533.96,526.142,0.0
53611.0,STARLINK-4650,PAYLOAD,2023-12-30 22:17:50,15.12016799,0.0005722,53.2148,224.0252,152.5984,207.5312,1.7802e-05,1e-07,0.0,0 STARLINK-4650,1 53611U 22104Z   23364.92905342  .00000010  00000-0  17802-4 0  9990,2 53611  53.2148 224.0252 0005722 152.5984 207.5312 15.12016799 75023,6908.187,95.237,534.005,526.099,0.0
53611.0,STARLINK-4650,PAYLOAD,2023-12-31 22:05:36,15.12028481,0.0005468,53.2163,219.5526,151.9884,208.1404,0.00010565,1.538e-05,0.0,0 STARLINK-4650,1 53611U 22104Z   23365.92055661  .00001538  00000-0  10565-3 0  9995,2 53611  53.2163 219.5526 0005468 151.9884 208.1404 15.12028481 75178,6908.152,95.236,533.794,526.239,0.0
53611.0,STARLINK-4650,PAYLOAD,2024-01-01 13:57:26,15.12026849,0.0005371,53.2161,216.5712,153.279,206.8481,0.0001054,1.534e-05,0.0,0 STARLINK-4650,1 53611U 22104Z   24001.58156183  .00001534  00000-0  10540-3 0  9995,2 53611  53.2161 216.5712 0005371 153.2790 206.8481 15.12026849 75271,6908.157,95.236,533.732,526.311,0.0
53611.0,STARLINK-4650,PAYLOAD,2024-01-01 20:18:11,15.12023997,0.0005426,53.2161,215.3776,154.5333,205.5929,0.00013069,1.973e-05,0.0,0 STARLINK-4650,1 53611U 22104Z   24001.84596501  .00001973  00000-0  13069-3 0  9992,2 53611  53.2161 215.3776 0005426 154.5333 205.5929 15.12023997 74628,6908.165,95.237,533.779,526.282,0.0
53611.0,STARLINK-4650,PAYLOAD,2024-01-01 21:53:22,15.12025587,0.0005385,53.2163,215.0796,154.2474,205.8789,0.00014352,2.197e-05,0.0,0 STARLINK-4650,1 53611U 22104Z   24001.91206461  .00002197  00000-0  14352-3 0  9998,2 53611  53.2163 215.0796 0005385 154.2474 205.8789 15.12025587 75328,6908.16,95.236,533.745,526.305,0.0
53611.0,STARLINK-4650,PAYLOAD,2024-01-01 23:28:33,15.12026554,0.000539,53.2162,214.7812,154.5685,205.5574,0.00015135,2.333e-05,0.0,0 STARLINK-4650,1 53611U 22104Z   24001.97816440  .00002333  00000-0  15135-3 0  9990,2 53611  53.2162 214.7812 0005390 154.5685 205.5574 15.12026554 75330,6908.157,95.236,533.746,526.299,0.0
53611.0,STARLINK-4650,PAYLOAD,2024-01-02 20:05:57,15.12025539,0.000536,53.2162,210.9043,156.7176,203.4061,2.8416e-05,1.95e-06,0.0,0 STARLINK-4650,1 53611U 22104Z   24002.83747272  .00000195  00000-0  28416-4 0  9993,2 53611  53.2162 210.9043 0005360 156.7176 203.4061 15.12025539 75464,6908.161,95.236,533.728,526.323,0.0
53611.0,STARLINK-4650,PAYLOAD,2024-01-03 13:32:59,15.12024389,0.0005322,53.2161,207.6235,159.2339,200.8872,4.2313e-05,4.37e-06,0.0,0 STARLINK-4650,1 53611U 22104Z   24003.56457717  .00000437  00000-0  42313-4 0  9997,2 53611  53.2161 207.6235 0005322 159.2339 200.8872 15.12024389 75571,6908.164,95.237,533.706,526.353,0.0
53611.0,STARLINK-4650,PAYLOAD,2024-01-03 19:53:43,15.1202775,0.0005211,53.2163,206.4311,158.7576,201.3635,6.1881e-05,7.77e-06,0.0,0 STARLINK-4650,1 53611U 22104Z   24003.82897594  .00000777  00000-0  61881-4 0  9995,2 53611  53.2163 206.4311 0005211 158.7576 201.3635 15.12027750 75612,6908.154,95.236,533.619,526.419,0.0
